{
  "type": "FeatureCollection",
  "features": [
    {
      "type": "Feature",
      "properties": {
        "norad_id": 31307,
        "name": "GALAXY 17 (G-17)",
        "group": "intelsat",
        "lat": 1.3616133315637402,
        "lon": 114.14629716176526,
        "alt_km": 35802.70231581798,
        "timestamp": "2025-12-25T07:00:33.709947+00:00",
        "meta_object_name": "GALAXY 17 (G-17)",
        "meta_object_id": "2007-016B",
        "meta_epoch": "2025-12-24T19:32:34.050336",
        "meta_mean_motion": 1.00276094,
        "meta_eccentricity": 0.00053776,
        "meta_inclination": 2.5284,
        "meta_ra_of_asc_node": 82.1476,
        "meta_arg_of_pericenter": 174.0589,
        "meta_mean_anomaly": 45.5313,
        "meta_ephemeris_type": 0,
        "meta_classification_type": "U",
        "meta_norad_cat_id": 31307,
        "meta_element_set_no": 999,
        "meta_rev_at_epoch": 6805,
        "meta_bstar": 0,
        "meta_mean_motion_dot": -1.87e-06,
        "meta_mean_motion_ddot": 0,
        "tle_line1": "1 31307U 07016B   25358.81428299 -.00000187  00000+0  00000+0 0  9999",
        "tle_line2": "2 31307   2.5284  82.1476 0005377 174.0589  45.5313  1.00276094 68050"
      },
      "geometry": {
        "type": "Point",
        "coordinates": [
          114.14629716176526,
          1.3616133315637402
        ]
      }
    },
    {
      "type": "Feature",
      "properties": {
        "norad_id": 31862,
        "name": "DIRECTV 10",
        "group": "intelsat",
        "lat": -4.910459442220714e-05,
        "lon": 96.40089518843523,
        "alt_km": 35786.45521765944,
        "timestamp": "2025-12-25T07:00:33.709958+00:00",
        "meta_object_name": "DIRECTV 10",
        "meta_object_id": "2007-032A",
        "meta_epoch": "2025-12-24T14:19:19.046208",
        "meta_mean_motion": 1.00273609,
        "meta_eccentricity": 2.725e-05,
        "meta_inclination": 0.0207,
        "meta_ra_of_asc_node": 182.1136,
        "meta_arg_of_pericenter": 53.7746,
        "meta_mean_anomaly": 329.5202,
        "meta_ephemeris_type": 0,
        "meta_classification_type": "U",
        "meta_norad_cat_id": 31862,
        "meta_element_set_no": 999,
        "meta_rev_at_epoch": 4384,
        "meta_bstar": 0,
        "meta_mean_motion_dot": -8.2e-07,
        "meta_mean_motion_ddot": 0,
        "tle_line1": "1 31862U 07032A   25358.59674822 -.00000082  00000+0  00000+0 0  9997",
        "tle_line2": "2 31862   0.0207 182.1136 0000272  53.7746 329.5202  1.00273609 43846"
      },
      "geometry": {
        "type": "Point",
        "coordinates": [
          96.40089518843523,
          -4.910459442220714e-05
        ]
      }
    },
    {
      "type": "Feature",
      "properties": {
        "norad_id": 32253,
        "name": "INTELSAT 11 (IS-11)",
        "group": "intelsat",
        "lat": -2.945243227082079,
        "lon": 9.829529004245433,
        "alt_km": 36148.66829060135,
        "timestamp": "2025-12-25T07:00:33.709970+00:00",
        "meta_object_name": "INTELSAT 11 (IS-11)",
        "meta_object_id": "2007-044B",
        "meta_epoch": "2025-12-24T20:46:04.510272",
        "meta_mean_motion": 0.99053047,
        "meta_eccentricity": 0.00086021,
        "meta_inclination": 3.1098,
        "meta_ra_of_asc_node": 80.8414,
        "meta_arg_of_pericenter": 171.0045,
        "meta_mean_anomaly": 325.7039,
        "meta_ephemeris_type": 0,
        "meta_classification_type": "U",
        "meta_norad_cat_id": 32253,
        "meta_element_set_no": 999,
        "meta_rev_at_epoch": 6672,
        "meta_bstar": 0,
        "meta_mean_motion_dot": -1.82e-06,
        "meta_mean_motion_ddot": 0,
        "tle_line1": "1 32253U 07044B   25358.86532998 -.00000182  00000+0  00000+0 0  9993",
        "tle_line2": "2 32253   3.1098  80.8414 0008602 171.0045 325.7039  0.99053047 66724"
      },
      "geometry": {
        "type": "Point",
        "coordinates": [
          9.829529004245433,
          -2.945243227082079
        ]
      }
    },
    {
      "type": "Feature",
      "properties": {
        "norad_id": 32388,
        "name": "HORIZONS-2",
        "group": "intelsat",
        "lat": 1.4744511236476436,
        "lon": 125.34501093134566,
        "alt_km": 35804.5951143091,
        "timestamp": "2025-12-25T07:00:33.709981+00:00",
        "meta_object_name": "HORIZONS-2",
        "meta_object_id": "2007-063B",
        "meta_epoch": "2025-12-24T19:35:48.738912",
        "meta_mean_motion": 1.00269737,
        "meta_eccentricity": 0.0004754,
        "meta_inclination": 2.1511,
        "meta_ra_of_asc_node": 82.8306,
        "meta_arg_of_pericenter": 196.4955,
        "meta_mean_anomaly": 34.4159,
        "meta_ephemeris_type": 0,
        "meta_classification_type": "U",
        "meta_norad_cat_id": 32388,
        "meta_element_set_no": 999,
        "meta_rev_at_epoch": 6606,
        "meta_bstar": 0,
        "meta_mean_motion_dot": -2.33e-06,
        "meta_mean_motion_ddot": 0,
        "tle_line1": "1 32388U 07063B   25358.81653633 -.00000233  00000+0  00000+0 0  9995",
        "tle_line2": "2 32388   2.1511  82.8306 0004754 196.4955  34.4159  1.00269737 66061"
      },
      "geometry": {
        "type": "Point",
        "coordinates": [
          125.34501093134566,
          1.4744511236476436
        ]
      }
    },
    {
      "type": "Feature",
      "properties": {
        "norad_id": 32729,
        "name": "DIRECTV 11",
        "group": "intelsat",
        "lat": -0.015197270761305694,
        "lon": 99.93432049715113,
        "alt_km": 35788.05732937945,
        "timestamp": "2025-12-25T07:00:33.709994+00:00",
        "meta_object_name": "DIRECTV 11",
        "meta_object_id": "2008-013A",
        "meta_epoch": "2025-12-24T09:12:12.534624",
        "meta_mean_motion": 1.00256345,
        "meta_eccentricity": 0.00011263,
        "meta_inclination": 0.0044,
        "meta_ra_of_asc_node": 219.4994,
        "meta_arg_of_pericenter": 300.4767,
        "meta_mean_anomaly": 332.0426,
        "meta_ephemeris_type": 0,
        "meta_classification_type": "U",
        "meta_norad_cat_id": 32729,
        "meta_element_set_no": 999,
        "meta_rev_at_epoch": 4384,
        "meta_bstar": 0,
        "meta_mean_motion_dot": 0,
        "meta_mean_motion_ddot": 0,
        "tle_line1": "1 32729U 08013A   25358.38347841  .00000000  00000+0  00000+0 0  9994",
        "tle_line2": "2 32729   0.0044 219.4994 0001126 300.4767 332.0426  1.00256345 43843"
      },
      "geometry": {
        "type": "Point",
        "coordinates": [
          99.93432049715113,
          -0.015197270761305694
        ]
      }
    },
    {
      "type": "Feature",
      "properties": {
        "norad_id": 32951,
        "name": "GALAXY 18 (G-18)",
        "group": "intelsat",
        "lat": 0.026211527909103742,
        "lon": 76.19548159337913,
        "alt_km": 35797.76546272294,
        "timestamp": "2025-12-25T07:00:33.710006+00:00",
        "meta_object_name": "GALAXY 18 (G-18)",
        "meta_object_id": "2008-024A",
        "meta_epoch": "2025-12-24T17:38:59.925120",
        "meta_mean_motion": 1.00272034,
        "meta_eccentricity": 0.00030213,
        "meta_inclination": 0.0155,
        "meta_ra_of_asc_node": 316.1096,
        "meta_arg_of_pericenter": 322.9393,
        "meta_mean_anomaly": 316.1996,
        "meta_ephemeris_type": 0,
        "meta_classification_type": "U",
        "meta_norad_cat_id": 32951,
        "meta_element_set_no": 999,
        "meta_rev_at_epoch": 4410,
        "meta_bstar": 0,
        "meta_mean_motion_dot": 4.6e-07,
        "meta_mean_motion_ddot": 0,
        "tle_line1": "1 32951U 08024A   25358.73541580  .00000046  00000+0  00000+0 0  9998",
        "tle_line2": "2 32951   0.0155 316.1096 0003021 322.9393 316.1996  1.00272034 44109"
      },
      "geometry": {
        "type": "Point",
        "coordinates": [
          76.19548159337913,
          0.026211527909103742
        ]
      }
    },
    {
      "type": "Feature",
      "properties": {
        "norad_id": 33153,
        "name": "INTELSAT 25 (IS-25)",
        "group": "intelsat",
        "lat": 2.2599938249576104,
        "lon": 167.63715897351804,
        "alt_km": 35790.753840630896,
        "timestamp": "2025-12-25T07:00:33.710017+00:00",
        "meta_object_name": "INTELSAT 25 (IS-25)",
        "meta_object_id": "2008-034A",
        "meta_epoch": "2025-12-24T19:47:55.078656",
        "meta_mean_motion": 1.00272075,
        "meta_eccentricity": 0.00048975,
        "meta_inclination": 2.2569,
        "meta_ra_of_asc_node": 82.5197,
        "meta_arg_of_pericenter": 189.0782,
        "meta_mean_anomaly": 87.4801,
        "meta_ephemeris_type": 0,
        "meta_classification_type": "U",
        "meta_norad_cat_id": 33153,
        "meta_element_set_no": 999,
        "meta_rev_at_epoch": 6394,
        "meta_bstar": 0,
        "meta_mean_motion_dot": -2.03e-06,
        "meta_mean_motion_ddot": 0,
        "tle_line1": "1 33153U 08034A   25358.82494304 -.00000203  00000+0  00000+0 0  9991",
        "tle_line2": "2 33153   2.2569  82.5197 0004897 189.0782  87.4801  1.00272075 63940"
      },
      "geometry": {
        "type": "Point",
        "coordinates": [
          167.63715897351804,
          2.2599938249576104
        ]
      }
    }
  ]
}